HIMAWARI-8              
1 40267U 14060A   24148.28595131 -.00000264  00000+0  00000+0 0  9994
2 40267   0.0538 131.3675 0001206 328.6654  28.9131  1.00270666 35332
